     2              NAVIGATION DATA                         RINEX VERSION / TYPE
CCRINEXN V1.6.0 UX  CDDIS               30-MAR-16 23:39     PGM / RUN BY / DATE 
IGS BROADCAST EPHEMERIS FILE                                COMMENT             
    0.1676D-07  0.7451D-08 -0.1192D-06 -0.5960D-07          ION ALPHA           
    0.1106D+06  0.1638D+05 -0.2621D+06 -0.6554D+05          ION BETA            
    0.279396772385D-08 0.355271367880D-14   503808     1890 DELTA-UTC: A0,A1,T,W
    17                                                      LEAP SECONDS        
                                                            END OF HEADER       
16 16  3 30  6  0  0.0-0.283680856228D-04 0.284217094304D-11 0.000000000000D+00
    0.540000000000D+02-0.388125000000D+02 0.396195074544D-08-0.159288462844D+00
   -0.182539224625D-05 0.871816545259D-02 0.506266951561D-05 0.515372987556D+04
    0.280800000000D+06 0.912696123123D-07 0.309584386833D+01 0.931322574616D-08
    0.991087726668D+00 0.295750000000D+03 0.351018234210D+00-0.805247827519D-08
    0.464305054455D-11 0.000000000000D+00 0.189000000000D+04 0.000000000000D+00
    0.200000000000D+01 0.000000000000D+00-0.102445483208D-07 0.540000000000D+02
    0.273600000000D+06 0.400000000000D+01 0.000000000000D+00 0.000000000000D+00
17 16  3 30  6  0  0.0-0.202609226108D-03-0.454747350886D-12 0.000000000000D+00
    0.110000000000D+02-0.605937500000D+02 0.426232027451D-08-0.108941339124D+01
   -0.288151204586D-05 0.109850979643D-01 0.905990600586D-05 0.515366762734D+04
    0.280800000000D+06 0.931322574616D-08-0.216546581561D+01 0.266358256340D-06
    0.975678415551D+00 0.213750000000D+03-0.193460899968D+01-0.795390242558D-08
    0.113576162364D-09 0.100000000000D+01 0.189000000000D+04 0.000000000000D+00
    0.200000000000D+01 0.000000000000D+00-0.107102096081D-07 0.110000000000D+02
    0.273630000000D+06 0.000000000000D+00 0.000000000000D+00 0.000000000000D+00
18 16  3 30  6  0  0.0 0.499090645462D-03 0.397903932026D-11 0.000000000000D+00
    0.107000000000D+03-0.553125000000D+01 0.571023785433D-08 0.470263457618D+00
   -0.117346644402D-06 0.169059686596D-01 0.711716711521D-05 0.515366751480D+04
    0.280800000000D+06-0.206753611565D-06-0.146641145449D+00 0.540167093277D-07
    0.925357824045D+00 0.228531250000D+03-0.190132863157D+01-0.890644241765D-08
   -0.317513225700D-09 0.100000000000D+01 0.189000000000D+04 0.000000000000D+00
    0.280000000000D+01 0.000000000000D+00-0.111758708954D-07 0.107000000000D+03
    0.273600000000D+06 0.000000000000D+00 0.000000000000D+00 0.000000000000D+00
19 16  3 30  6  0  0.0-0.525497365743D-03-0.113686837722D-12 0.000000000000D+00
    0.370000000000D+02-0.711250000000D+02 0.418445988970D-08 0.204467643389D+01
   -0.368803739548D-05 0.107417444233D-01 0.911951065063D-05 0.515361709213D+04
    0.280800000000D+06-0.247731804848D-06-0.211653644603D+01-0.108033418655D-06
    0.972738065782D+00 0.213750000000D+03 0.732145781656D+00-0.785461296004D-08
    0.143577413847D-09 0.100000000000D+01 0.189000000000D+04 0.000000000000D+00
    0.200000000000D+01 0.000000000000D+00-0.153668224812D-07 0.370000000000D+02
    0.273630000000D+06 0.000000000000D+00 0.000000000000D+00 0.000000000000D+00
20 16  3 30  6  0  0.0 0.402636360377D-03 0.250111042988D-11 0.000000000000D+00
    0.550000000000D+02-0.596875000000D+01 0.549344303380D-08-0.185926303224D+01
   -0.277534127235D-06 0.473052472808D-02 0.673718750477D-05 0.515370965958D+04
    0.280800000000D+06 0.689178705216D-07-0.198526295657D+00 0.614672899246D-07
    0.926594022006D+00 0.231187500000D+03 0.135134771178D+01-0.845606695776D-08
   -0.161792454434D-09 0.100000000000D+01 0.189000000000D+04 0.000000000000D+00
    0.200000000000D+01 0.000000000000D+00-0.838190317154D-08 0.550000000000D+02
    0.280500000000D+06 0.000000000000D+00 0.000000000000D+00 0.000000000000D+00
21 16  3 30  6  0  0.0-0.517005100846D-03-0.159161572810D-11 0.000000000000D+00
    0.630000000000D+02-0.160625000000D+02 0.538451000074D-08 0.133826771734D+01
   -0.111944973469D-05 0.233345836168D-01 0.828132033348D-05 0.515364427185D+04
    0.280800000000D+06-0.476837158203D-06-0.118885495802D+01-0.409781932831D-06
    0.935693767447D+00 0.216687500000D+03-0.180975663071D+01-0.861214444467D-08
    0.225366530278D-09 0.100000000000D+01 0.189000000000D+04 0.000000000000D+00
    0.200000000000D+01 0.000000000000D+00-0.116415321827D-07 0.630000000000D+02
    0.273600000000D+06 0.000000000000D+00 0.000000000000D+00 0.000000000000D+00
22 16  3 30  6  0  0.0 0.372290145606D-03-0.704858393874D-11 0.000000000000D+00
    0.750000000000D+02-0.921875000000D+01 0.560451916501D-08-0.119573637252D+01
   -0.484287738800D-06 0.781064142939D-02 0.672787427902D-05 0.515505370712D+04
    0.280800000000D+06 0.521540641785D-07-0.145899725401D+00 0.206753611565D-06
    0.923226865888D+00 0.226750000000D+03-0.200295947135D+01-0.854928468345D-08
   -0.270011247052D-09 0.000000000000D+00 0.189000000000D+04 0.000000000000D+00
    0.200000000000D+01 0.000000000000D+00-0.176951289177D-07 0.750000000000D+02
    0.273600000000D+06 0.400000000000D+01 0.000000000000D+00 0.000000000000D+00
23 16  3 30  6  0  0.0-0.167035963386D-03-0.181898940355D-11 0.000000000000D+00
    0.110000000000D+03 0.384375000000D+02 0.461412064112D-08-0.237941099280D+01
    0.177510082722D-05 0.106494108914D-01 0.971555709839D-05 0.515370718384D+04
    0.280800000000D+06 0.540167093277D-07 0.929783787604D+00-0.152736902237D-06
    0.946423088058D+00 0.183625000000D+03-0.259932242828D+01-0.792711585262D-08
   -0.170721395354D-09 0.100000000000D+01 0.189000000000D+04 0.000000000000D+00
    0.200000000000D+01 0.000000000000D+00-0.200234353542D-07 0.110000000000D+03
    0.273630000000D+06 0.000000000000D+00 0.000000000000D+00 0.000000000000D+00
24 16  3 30  6  0  0.0-0.147321261466D-04-0.568434188608D-12 0.000000000000D+00
    0.770000000000D+02 0.605312500000D+02 0.464912222603D-08-0.299454901256D+01
    0.320561230183D-05 0.439123250544D-02 0.646524131298D-05 0.515362931251D+04
    0.280800000000D+06-0.111758708954D-07 0.195615861246D+01-0.242143869400D-07
    0.949855146537D+00 0.250218750000D+03 0.401442264265D+00-0.820212736581D-08
    0.154649298907D-09 0.100000000000D+01 0.189000000000D+04 0.000000000000D+00
    0.280000000000D+01 0.000000000000D+00 0.232830643654D-08 0.770000000000D+02
    0.273618000000D+06 0.400000000000D+01 0.000000000000D+00 0.000000000000D+00
25 16  3 30  6  0  0.0-0.143533572555D-03-0.704858393874D-11 0.000000000000D+00
    0.740000000000D+02-0.212500000000D+02 0.420731804951D-08 0.134938610102D+01
   -0.124238431454D-05 0.545874214731D-02 0.473670661449D-05 0.515377846527D+04
    0.280800000000D+06-0.260770320892D-07 0.302689082217D+01 0.987201929092D-07
    0.978822636120D+00 0.295312500000D+03 0.732552319276D+00-0.815355427619D-08
   -0.750031200342D-11 0.100000000000D+01 0.189000000000D+04 0.000000000000D+00
    0.200000000000D+01 0.000000000000D+00 0.558793544769D-08 0.740000000000D+02
    0.280170000000D+06 0.000000000000D+00 0.000000000000D+00 0.000000000000D+00
26 16  3 30  6  0  0.0-0.311730895191D-03-0.140971678775D-10 0.000000000000D+00
    0.330000000000D+02-0.320312500000D+02 0.457733352146D-08 0.622959919433D+00
   -0.161305069923D-05 0.980926910415D-03 0.433251261711D-05 0.515373239517D+04
    0.280800000000D+06 0.316649675369D-07 0.301894532056D+01-0.558793544769D-08
    0.960811002938D+00 0.295312500000D+03 0.562205913219D-01-0.826177270742D-08
   -0.117862052285D-10 0.000000000000D+00 0.189000000000D+04 0.000000000000D+00
    0.200000000000D+01 0.000000000000D+00 0.698491930962D-08 0.330000000000D+02
    0.273600000000D+06 0.400000000000D+01 0.000000000000D+00 0.000000000000D+00
27 16  3 30  6  0  0.0 0.770250335336D-04 0.375166564481D-11 0.000000000000D+00
    0.400000000000D+02-0.511250000000D+02 0.433518057767D-08-0.104633948440D+01
   -0.276044011116D-05 0.344145449344D-02 0.862404704094D-05 0.515363626671D+04
    0.280800000000D+06 0.484287738800D-07-0.221502779632D+01-0.391155481338D-07
    0.970650971760D+00 0.216750000000D+03 0.222626372985D+00-0.793175896103D-08
    0.136791412197D-09 0.000000000000D+00 0.189000000000D+04 0.000000000000D+00
    0.200000000000D+01 0.000000000000D+00 0.139698386192D-08 0.400000000000D+02
    0.273600000000D+06 0.400000000000D+01 0.000000000000D+00 0.000000000000D+00
28 16  3 30  6  0  0.0 0.512621831149D-03 0.261479726760D-11 0.000000000000D+00
    0.880000000000D+02-0.340312500000D+02 0.409088452002D-08-0.322989714207D+00
   -0.185333192349D-05 0.197919659549D-01 0.539422035217D-05 0.515362529564D+04
    0.280800000000D+06-0.288709998131D-06 0.310085733102D+01 0.154599547386D-06
    0.989778330138D+00 0.296593750000D+03-0.161860599350D+01-0.835427638180D-08
    0.760745980100D-10 0.100000000000D+01 0.189000000000D+04 0.000000000000D+00
    0.280000000000D+01 0.000000000000D+00-0.107102096081D-07 0.880000000000D+02
    0.273630000000D+06 0.000000000000D+00 0.000000000000D+00 0.000000000000D+00
29 16  3 30  6  0  0.0 0.656448770315D-03 0.341060513165D-12 0.000000000000D+00
    0.340000000000D+02-0.495625000000D+02 0.421303263258D-08 0.139509290199D+01
   -0.267289578915D-05 0.105946708936D-02 0.857748091221D-05 0.515359657097D+04
    0.280800000000D+06 0.167638063431D-07-0.215580141744D+01-0.149011611938D-07
    0.976623887802D+00 0.226843750000D+03-0.448660190852D+00-0.786461330700D-08
    0.123219418298D-09 0.100000000000D+01 0.189000000000D+04 0.000000000000D+00
    0.200000000000D+01 0.000000000000D+00-0.102445483208D-07 0.340000000000D+02
    0.274938000000D+06 0.400000000000D+01 0.000000000000D+00 0.000000000000D+00
